start=new Date('2023-01-12T00:00:00.000Z').valueOf();
sats=[{"MEAN_MOTION_DOT":"0.00007663","REV_AT_EPOCH":"6470","NORAD_CAT_ID":"49445","EPHEMERIS_TYPE":"0","SITE":"AFETR","MEAN_MOTION_DDOT":"0.0000000000000","INCLINATION":"53.2165","TLE_LINE2":"2 49445  53.2165 355.3085 0001423  83.6311 276.4843 15.08845033 64709","COUNTRY_CODE":"US","CENTER_NAME":"EARTH","ARG_OF_PERICENTER":"83.6311","APOAPSIS":"540.714","ELEMENT_SET_NO":"999","GP_ID":"222826163","SEMIMAJOR_AXIS":"6917.865","OBJECT_NAME":"STARLINK-3122","EPOCH":"2023-01-11T15:41:04.233408","PERIOD":"95.437","MEAN_ELEMENT_THEORY":"SGP4","FILE":"3740419","TLE_LINE1":"1 49445U 21104AP  23011.65352122  .00007663  00000-0  49897-3 0  9999","OBJECT_ID":"2021-104AP","ECCENTRICITY":"0.00014230","RA_OF_ASC_NODE":"355.3085","DECAY_DATE":null,"PERIAPSIS":"538.746","LAUNCH_DATE":"2021-11-13","REF_FRAME":"TEME","MEAN_MOTION":"15.08845033","OBJECT_TYPE":"PAYLOAD","RCS_SIZE":"LARGE","CLASSIFICATION_TYPE":"U","TIME_SYSTEM":"UTC","BSTAR":"0.00049897000000","MEAN_ANOMALY":"276.4843"},{"OBJECT_TYPE":"PAYLOAD","LAUNCH_DATE":"2021-11-13","PERIAPSIS":"537.728","REF_FRAME":"TEME","MEAN_MOTION":"15.08863247","TIME_SYSTEM":"UTC","BSTAR":"0.00057015000000","MEAN_ANOMALY":"330.3881","CLASSIFICATION_TYPE":"U","RCS_SIZE":"LARGE","FILE":"3740419","MEAN_ELEMENT_THEORY":"SGP4","PERIOD":"95.436","EPOCH":"2023-01-11T21:37:24.313440","DECAY_DATE":null,"RA_OF_ASC_NODE":"344.1955","ECCENTRICITY":"0.00028140","OBJECT_ID":"2021-104AQ","TLE_LINE1":"1 49446U 21104AQ  23011.90097585  .00008803  00000-0  57015-3 0  9995","APOAPSIS":"541.621","ARG_OF_PERICENTER":"29.7270","CENTER_NAME":"EARTH","COUNTRY_CODE":"US","OBJECT_NAME":"STARLINK-3099","SEMIMAJOR_AXIS":"6917.809","GP_ID":"222824416","ELEMENT_SET_NO":"999","EPHEMERIS_TYPE":"0","NORAD_CAT_ID":"49446","MEAN_MOTION_DOT":"0.00008803","REV_AT_EPOCH":"6488","TLE_LINE2":"2 49446  53.2172 344.1955 0002814  29.7270 330.3881 15.08863247 64888","MEAN_MOTION_DDOT":"0.0000000000000","INCLINATION":"53.2172","SITE":"AFETR"},{"COUNTRY_CODE":"US","APOAPSIS":"541.117","ARG_OF_PERICENTER":"69.0660","CENTER_NAME":"EARTH","OBJECT_NAME":"STARLINK-3115","GP_ID":"222825165","ELEMENT_SET_NO":"999","SEMIMAJOR_AXIS":"6917.792","NORAD_CAT_ID":"49447","MEAN_MOTION_DOT":"0.00016146","REV_AT_EPOCH":"6474","EPHEMERIS_TYPE":"0","TLE_LINE2":"2 49447  53.2167 354.1406 0002111  69.0660 291.0558 15.08868937 64745","MEAN_MOTION_DDOT":"0.0000000000000","INCLINATION":"53.2167","SITE":"AFETR","OBJECT_TYPE":"PAYLOAD","PERIAPSIS":"538.197","LAUNCH_DATE":"2021-11-13","REF_FRAME":"TEME","MEAN_MOTION":"15.08868937","BSTAR":"0.00102940000000","MEAN_ANOMALY":"291.0558","TIME_SYSTEM":"UTC","CLASSIFICATION_TYPE":"U","RCS_SIZE":"LARGE","MEAN_ELEMENT_THEORY":"SGP4","FILE":"3740419","PERIOD":"95.436","EPOCH":"2023-01-11T21:52:00.091488","RA_OF_ASC_NODE":"354.1406","DECAY_DATE":null,"OBJECT_ID":"2021-104AR","TLE_LINE1":"1 49447U 21104AR  23011.91111217  .00016146  00000-0  10294-2 0  9992","ECCENTRICITY":"0.00021110"},{"RCS_SIZE":"LARGE","CLASSIFICATION_TYPE":"U","BSTAR":"0.00006507100000","TIME_SYSTEM":"UTC","MEAN_ANOMALY":"336.3270","LAUNCH_DATE":"2021-11-13","PERIAPSIS":"537.898","MEAN_MOTION":"15.08832256","REF_FRAME":"TEME","OBJECT_TYPE":"PAYLOAD","OBJECT_ID":"2021-104AS","TLE_LINE1":"1 49448U 21104AS  23011.92215855  .00000747  00000-0  65071-4 0  9992","ECCENTRICITY":"0.00027040","RA_OF_ASC_NODE":"354.1006","DECAY_DATE":null,"EPOCH":"2023-01-11T22:07:54.498720","PERIOD":"95.438","MEAN_ELEMENT_THEORY":"SGP4","FILE":"3740419","ELEMENT_SET_NO":"999","GP_ID":"222825917","SEMIMAJOR_AXIS":"6917.904","OBJECT_NAME":"STARLINK-3097","COUNTRY_CODE":"US","ARG_OF_PERICENTER":"23.7847","CENTER_NAME":"EARTH","APOAPSIS":"541.640","SITE":"AFETR","INCLINATION":"53.2170","MEAN_MOTION_DDOT":"0.0000000000000","TLE_LINE2":"2 49448  53.2170 354.1006 0002704  23.7847 336.3270 15.08832256 64747","MEAN_MOTION_DOT":"0.00000747","REV_AT_EPOCH":"6474","NORAD_CAT_ID":"49448","EPHEMERIS_TYPE":"0"},{"APOAPSIS":"541.839","CENTER_NAME":"EARTH","ARG_OF_PERICENTER":"23.2538","COUNTRY_CODE":"US","OBJECT_NAME":"STARLINK-3137","SEMIMAJOR_AXIS":"6917.833","ELEMENT_SET_NO":"999","GP_ID":"222825663","EPHEMERIS_TYPE":"0","NORAD_CAT_ID":"49449","MEAN_MOTION_DOT":"0.00003565","REV_AT_EPOCH":"6474","TLE_LINE2":"2 49449  53.2177 354.1653 0003095  23.2538 336.8594 15.08855474 64740","INCLINATION":"53.2177","MEAN_MOTION_DDOT":"0.0000000000000","SITE":"AFETR","OBJECT_TYPE":"PAYLOAD","REF_FRAME":"TEME","LAUNCH_DATE":"2021-11-13","PERIAPSIS":"537.557","MEAN_MOTION":"15.08855474","BSTAR":"0.00024189000000","TIME_SYSTEM":"UTC","MEAN_ANOMALY":"336.8594","CLASSIFICATION_TYPE":"U","RCS_SIZE":"LARGE","FILE":"3740419","MEAN_ELEMENT_THEORY":"SGP4","PERIOD":"95.437","EPOCH":"2023-01-11T21:46:40.815840","DECAY_DATE":null,"RA_OF_ASC_NODE":"354.1653","ECCENTRICITY":"0.00030950","OBJECT_ID":"2021-104AT","TLE_LINE1":"1 49449U 21104AT  23011.90741685  .00003565  00000-0  24189-3 0  9991"},{"PERIOD":"95.437","EPOCH":"2023-01-11T20:21:53.923392","FILE":"3740419","MEAN_ELEMENT_THEORY":"SGP4","ECCENTRICITY":"0.00026610","TLE_LINE1":"1 49450U 21104AU  23011.84854078  .00001773  00000-0  12947-3 0  9995","OBJECT_ID":"2021-104AU","DECAY_DATE":null,"RA_OF_ASC_NODE":"354.4216","LAUNCH_DATE":"2021-11-13","REF_FRAME":"TEME","PERIAPSIS":"537.884","MEAN_MOTION":"15.08846679","OBJECT_TYPE":"PAYLOAD","RCS_SIZE":"LARGE","BSTAR":"0.00012947000000","TIME_SYSTEM":"UTC","MEAN_ANOMALY":"333.0579","CLASSIFICATION_TYPE":"U","EPHEMERIS_TYPE":"0","NORAD_CAT_ID":"49450","MEAN_MOTION_DOT":"0.00001773","REV_AT_EPOCH":"6499","MEAN_MOTION_DDOT":"0.0000000000000","INCLINATION":"53.2189","SITE":"AFETR","TLE_LINE2":"2 49450  53.2189 354.4216 0002661  27.0551 333.0579 15.08846679 64994","APOAPSIS":"541.566","CENTER_NAME":"EARTH","ARG_OF_PERICENTER":"27.0551","COUNTRY_CODE":"US","SEMIMAJOR_AXIS":"6917.860","ELEMENT_SET_NO":"999","GP_ID":"222824916","OBJECT_NAME":"STARLINK-3127"},{"REV_AT_EPOCH":"6470","MEAN_MOTION_DOT":"0.00004911","NORAD_CAT_ID":"49451","EPHEMERIS_TYPE":"0","SITE":"AFETR","INCLINATION":"53.2158","MEAN_MOTION_DDOT":"0.0000000000000","TLE_LINE2":"2 49451  53.2158 355.3760 0001410  93.7557 266.3596 15.08847660 64709","COUNTRY_CODE":"US","CENTER_NAME":"EARTH","ARG_OF_PERICENTER":"93.7557","APOAPSIS":"540.697","GP_ID":"222824666","ELEMENT_SET_NO":"999","SEMIMAJOR_AXIS":"6917.857","OBJECT_NAME":"STARLINK-3125","EPOCH":"2023-01-11T15:19:52.291488","PERIOD":"95.437","MEAN_ELEMENT_THEORY":"SGP4","FILE":"3740419","TLE_LINE1":"1 49451U 21104AV  23011.63879967  .00004911  00000-0  32634-3 0  9999","OBJECT_ID":"2021-104AV","ECCENTRICITY":"0.00014100","RA_OF_ASC_NODE":"355.3760","DECAY_DATE":null,"REF_FRAME":"TEME","LAUNCH_DATE":"2021-11-13","PERIAPSIS":"538.747","MEAN_MOTION":"15.08847660","OBJECT_TYPE":"PAYLOAD","RCS_SIZE":"LARGE","CLASSIFICATION_TYPE":"U","BSTAR":"0.00032634000000","TIME_SYSTEM":"UTC","MEAN_ANOMALY":"266.3596"},{"OBJECT_TYPE":"PAYLOAD","MEAN_MOTION":"15.08849351","LAUNCH_DATE":"2021-11-13","PERIAPSIS":"537.609","REF_FRAME":"TEME","CLASSIFICATION_TYPE":"U","BSTAR":"0.00026045000000","MEAN_ANOMALY":"336.4337","TIME_SYSTEM":"UTC","RCS_SIZE":"LARGE","FILE":"3740419","MEAN_ELEMENT_THEORY":"SGP4","EPOCH":"2023-01-11T19:46:10.911360","PERIOD":"95.437","DECAY_DATE":null,"RA_OF_ASC_NODE":"354.5462","ECCENTRICITY":"0.00030470","OBJECT_ID":"2021-104AW","TLE_LINE1":"1 49452U 21104AW  23011.82373740  .00003860  00000-0  26045-3 0  9990","CENTER_NAME":"EARTH","ARG_OF_PERICENTER":"23.6795","APOAPSIS":"541.825","COUNTRY_CODE":"US","OBJECT_NAME":"STARLINK-3150","SEMIMAJOR_AXIS":"6917.852","ELEMENT_SET_NO":"999","GP_ID":"222825417","EPHEMERIS_TYPE":"0","MEAN_MOTION_DOT":"0.00003860","REV_AT_EPOCH":"6473","NORAD_CAT_ID":"49452","TLE_LINE2":"2 49452  53.2161 354.5462 0003047  23.6795 336.4337 15.08849351 64732","SITE":"AFETR","INCLINATION":"53.2161","MEAN_MOTION_DDOT":"0.0000000000000"},{"EPHEMERIS_TYPE":"0","NORAD_CAT_ID":"49453","MEAN_MOTION_DOT":"0.00004624","REV_AT_EPOCH":"6474","TLE_LINE2":"2 49453  53.2165 354.2201 0002174  37.4492 322.6652 15.08848981 64748","INCLINATION":"53.2165","MEAN_MOTION_DDOT":"0.0000000000000","SITE":"AFETR","APOAPSIS":"541.222","ARG_OF_PERICENTER":"37.4492","CENTER_NAME":"EARTH","COUNTRY_CODE":"US","OBJECT_NAME":"STARLINK-3129","SEMIMAJOR_AXIS":"6917.853","ELEMENT_SET_NO":"999","GP_ID":"222826164","FILE":"3740419","MEAN_ELEMENT_THEORY":"SGP4","PERIOD":"95.437","EPOCH":"2023-01-11T21:30:47.405664","DECAY_DATE":null,"RA_OF_ASC_NODE":"354.2201","ECCENTRICITY":"0.00021740","TLE_LINE1":"1 49453U 21104AX  23011.89638201  .00004624  00000-0  30836-3 0  9996","OBJECT_ID":"2021-104AX","OBJECT_TYPE":"PAYLOAD","PERIAPSIS":"538.214","LAUNCH_DATE":"2021-11-13","REF_FRAME":"TEME","MEAN_MOTION":"15.08848981","TIME_SYSTEM":"UTC","BSTAR":"0.00030836000000","MEAN_ANOMALY":"322.6652","CLASSIFICATION_TYPE":"U","RCS_SIZE":"LARGE"},{"PERIOD":"95.435","EPOCH":"2023-01-11T10:28:21.193824","MEAN_ELEMENT_THEORY":"SGP4","FILE":"3740054","OBJECT_ID":"2021-104AY","TLE_LINE1":"1 49454U 21104AY  23011.43635641  .00007871  00000-0  51148-3 0  9998","ECCENTRICITY":"0.00026670","RA_OF_ASC_NODE":"356.2796","DECAY_DATE":null,"PERIAPSIS":"537.765","LAUNCH_DATE":"2021-11-13","REF_FRAME":"TEME","MEAN_MOTION":"15.08884345","OBJECT_TYPE":"PAYLOAD","RCS_SIZE":"LARGE","BSTAR":"0.00051148000000","TIME_SYSTEM":"UTC","MEAN_ANOMALY":"332.7831","CLASSIFICATION_TYPE":"U","NORAD_CAT_ID":"49454","REV_AT_EPOCH":"6467","MEAN_MOTION_DOT":"0.00007871","EPHEMERIS_TYPE":"0","INCLINATION":"53.2172","MEAN_MOTION_DDOT":"0.0000000000000","SITE":"AFETR","TLE_LINE2":"2 49454  53.2172 356.2796 0002667  27.3301 332.7831 15.08884345 64679","COUNTRY_CODE":"US","APOAPSIS":"541.455","ARG_OF_PERICENTER":"27.3301","CENTER_NAME":"EARTH","ELEMENT_SET_NO":"999","GP_ID":"222767212","SEMIMAJOR_AXIS":"6917.745","OBJECT_NAME":"STARLINK-3160"}];
